STARLINK-30798          
1 58196U 23167X   26068.56353010  .00006510  00000+0  24589-3 0  9995
2 58196  43.0038 144.2954 0002809 265.2995  94.7536 15.27577174130964
STARLINK-31630          
1 59271U 24050T   26068.56880718 -.00002063  00000+0 -57526-4 0  9991
2 59271  53.1600 168.5079 0001409  92.3163 267.7999 15.30200807110710
